0 FENGYUN 1C DEB
1 30112U 99025RR  13282.82342998  .00000506  00000-0  23851-3 0  7837
2 30112 099.1930 023.4621 0227074 024.8665 090.9802 14.11767613346885
0 FENGYUN 1C DEB
1 30112U 99025RR  13284.09966701  .00000549  00000-0  25707-3 0  7842
2 30112 099.1933 024.7708 0227020 021.2829 097.2823 14.11769203347063
0 FENGYUN 1C DEB
1 30112U 99025RR  13285.51942024  .00000441  00000-0  21087-3 0  7851
2 30112 099.1936 026.2267 0226967 017.2990 112.9953 14.11770562347267
0 FENGYUN 1C DEB
1 30112U 99025RR  13286.86439090  .00000599  00000-0  27890-3 0  7867
2 30112 099.1937 027.6060 0226906 013.5225 108.6489 14.11771209347453
0 FENGYUN 1C DEB
1 30112U 99025RR  13288.19898688  .00000875  00000-0  39791-3 0  7878
2 30112 099.1938 028.9749 0226853 009.7777 051.5755 14.11774009347646
0 FENGYUN 1C DEB
1 30112U 99025RR  13289.32794955  .00000717  00000-0  32977-3 0  7881
2 30112 099.1938 030.1328 0226786 006.6054 029.4085 14.11775653347807
0 FENGYUN 1C DEB
1 30112U 99025RR  13290.53833487  .00000781  00000-0  35740-3 0  7893
2 30112 099.1936 031.3743 0226735 003.1977 061.0778 14.11777323347974
0 FENGYUN 1C DEB
1 30112U 99025RR  13291.82449348  .00000758  00000-0  34762-3 0  7904
2 30112 099.1935 032.6934 0226688 359.5807 117.8606 14.11779208348151
0 FENGYUN 1C DEB
1 30112U 99025RR  13293.22969382  .00000778  00000-0  35637-3 0  7910
2 30112 099.1933 034.1347 0226642 355.6334 059.6679 14.11781649348353
0 FENGYUN 1C DEB
1 30112U 99025RR  13294.80171144  .00000793  00000-0  36278-3 0  7926
2 30112 099.1933 035.7469 0226591 351.2118 129.3303 14.11784637348573
0 FENGYUN 1C DEB
1 30112U 99025RR  13295.86408000  .00000817  00000-0  37337-3 0  7932
2 30112 099.1933 036.8365 0226559 348.2217 128.7517 14.11785763348728
